start=new Date('2022-07-16T00:00:00.000Z').valueOf();
sats=[{"TIME_SYSTEM":"UTC","MEAN_MOTION_DDOT":"0.0000000000000","OBJECT_ID":"2021-027BK","MEAN_MOTION_DOT":"0.00001390","LAUNCH_DATE":"2021-04-07","REV_AT_EPOCH":"7180","SITE":"AFETR","ARG_OF_PERICENTER":"84.6817","ELEMENT_SET_NO":"999","PERIOD":"95.592","DECAY_DATE":null,"PERIAPSIS":"546.304","OBJECT_TYPE":"PAYLOAD","FILE":"3514839","INCLINATION":"53.0564","EPOCH":"2022-07-15T20:21:55.988352","SEMIMAJOR_AXIS":"6925.363","NORAD_CAT_ID":"48149","BSTAR":"0.00011222000000","RA_OF_ASC_NODE":"14.9754","GP_ID":"208201470","OBJECT_NAME":"STARLINK-2492","CENTER_NAME":"EARTH","ECCENTRICITY":"0.00013340","COUNTRY_CODE":"US","MEAN_ELEMENT_THEORY":"SGP4","APOAPSIS":"548.152","TLE_LINE2":"2 48149  53.0564  14.9754 0001334  84.6817 275.4324 15.06395281 71809","RCS_SIZE":"MEDIUM","REF_FRAME":"TEME","MEAN_MOTION":"15.06395281","CLASSIFICATION_TYPE":"U","MEAN_ANOMALY":"275.4324","EPHEMERIS_TYPE":"0","TLE_LINE1":"1 48149U 21027BK  22196.84856468  .00001390  00000-0  11222-3 0  9991"},{"REV_AT_EPOCH":"7181","LAUNCH_DATE":"2021-04-07","MEAN_MOTION_DOT":"0.00001734","OBJECT_ID":"2021-027BL","MEAN_MOTION_DDOT":"0.0000000000000","TIME_SYSTEM":"UTC","PERIOD":"95.592","ELEMENT_SET_NO":"999","ARG_OF_PERICENTER":"91.9672","SITE":"AFETR","INCLINATION":"53.0551","FILE":"3514839","OBJECT_TYPE":"PAYLOAD","PERIAPSIS":"546.281","DECAY_DATE":null,"SEMIMAJOR_AXIS":"6925.356","EPOCH":"2022-07-15T20:27:14.240160","BSTAR":"0.00013529000000","NORAD_CAT_ID":"48150","APOAPSIS":"548.162","COUNTRY_CODE":"US","MEAN_ELEMENT_THEORY":"SGP4","CENTER_NAME":"EARTH","ECCENTRICITY":"0.00013580","GP_ID":"208201720","OBJECT_NAME":"STARLINK-2493","RA_OF_ASC_NODE":"14.9620","RCS_SIZE":"LARGE","TLE_LINE2":"2 48150  53.0551  14.9620 0001358  91.9672 268.1472 15.06397547 71816","TLE_LINE1":"1 48150U 21027BL  22196.85224815  .00001734  00000-0  13529-3 0  9993","EPHEMERIS_TYPE":"0","MEAN_ANOMALY":"268.1472","CLASSIFICATION_TYPE":"U","MEAN_MOTION":"15.06397547","REF_FRAME":"TEME"},{"SEMIMAJOR_AXIS":"6925.404","EPOCH":"2022-07-15T20:32:34.575072","OBJECT_TYPE":"PAYLOAD","PERIAPSIS":"546.070","DECAY_DATE":null,"FILE":"3514839","INCLINATION":"53.0551","PERIOD":"95.593","ELEMENT_SET_NO":"999","ARG_OF_PERICENTER":"76.6883","SITE":"AFETR","MEAN_MOTION_DOT":"0.00012068","OBJECT_ID":"2021-027BM","MEAN_MOTION_DDOT":"0.0000000000000","TIME_SYSTEM":"UTC","REV_AT_EPOCH":"7181","LAUNCH_DATE":"2021-04-07","CLASSIFICATION_TYPE":"U","MEAN_MOTION":"15.06381921","REF_FRAME":"TEME","TLE_LINE1":"1 48151U 21027BM  22196.85595573  .00012068  00000-0  82805-3 0  9991","EPHEMERIS_TYPE":"0","MEAN_ANOMALY":"283.4299","RCS_SIZE":"LARGE","TLE_LINE2":"2 48151  53.0551  14.9449 0001731  76.6883 283.4299 15.06381921 71811","OBJECT_NAME":"STARLINK-2503","GP_ID":"208202972","RA_OF_ASC_NODE":"14.9449","APOAPSIS":"548.468","COUNTRY_CODE":"US","MEAN_ELEMENT_THEORY":"SGP4","CENTER_NAME":"EARTH","ECCENTRICITY":"0.00017310","BSTAR":"0.00082805000000","NORAD_CAT_ID":"48151"},{"MEAN_ANOMALY":"279.8126","TLE_LINE1":"1 48276U 21036A   22196.49886137 -.00007363  00000-0 -47559-3 0  9999","EPHEMERIS_TYPE":"0","REF_FRAME":"TEME","MEAN_MOTION":"15.06426810","CLASSIFICATION_TYPE":"U","TLE_LINE2":"2 48276  53.0547 271.5530 0001494  80.3031 279.8126 15.06426810 68449","RCS_SIZE":"LARGE","CENTER_NAME":"EARTH","ECCENTRICITY":"0.00014940","COUNTRY_CODE":"US","MEAN_ELEMENT_THEORY":"SGP4","APOAPSIS":"548.166","RA_OF_ASC_NODE":"271.5530","OBJECT_NAME":"STARLINK-2567","GP_ID":"208175661","NORAD_CAT_ID":"48276","BSTAR":"-0.00047559000000","EPOCH":"2022-07-15T11:58:21.622368","SEMIMAJOR_AXIS":"6925.266","FILE":"3514595","INCLINATION":"53.0547","DECAY_DATE":null,"OBJECT_TYPE":"PAYLOAD","PERIAPSIS":"546.097","SITE":"AFETR","ELEMENT_SET_NO":"999","ARG_OF_PERICENTER":"80.3031","PERIOD":"95.590","LAUNCH_DATE":"2021-04-29","REV_AT_EPOCH":"6844","TIME_SYSTEM":"UTC","MEAN_MOTION_DDOT":"0.0000000000000","OBJECT_ID":"2021-036A","MEAN_MOTION_DOT":"-0.00007363"},{"RA_OF_ASC_NODE":"235.0597","GP_ID":"208177210","OBJECT_NAME":"STARLINK-2569","CENTER_NAME":"EARTH","ECCENTRICITY":"0.00015310","APOAPSIS":"548.309","MEAN_ELEMENT_THEORY":"SGP4","COUNTRY_CODE":"US","NORAD_CAT_ID":"48277","BSTAR":"0.00019249000000","MEAN_MOTION":"15.06388619","REF_FRAME":"TEME","CLASSIFICATION_TYPE":"U","MEAN_ANOMALY":"262.9449","EPHEMERIS_TYPE":"0","TLE_LINE1":"1 48277U 21036B   22196.83198834  .00002586  00000-0  19249-3 0  9993","TLE_LINE2":"2 48277  53.0534 235.0597 0001531  97.1714 262.9449 15.06388619 68984","RCS_SIZE":"LARGE","ELEMENT_SET_NO":"999","ARG_OF_PERICENTER":"97.1714","SITE":"AFETR","PERIOD":"95.593","MEAN_MOTION_DDOT":"0.0000000000000","TIME_SYSTEM":"UTC","MEAN_MOTION_DOT":"0.00002586","OBJECT_ID":"2021-036B","REV_AT_EPOCH":"6898","LAUNCH_DATE":"2021-04-29","SEMIMAJOR_AXIS":"6925.383","EPOCH":"2022-07-15T19:58:03.792576","DECAY_DATE":null,"PERIAPSIS":"546.188","OBJECT_TYPE":"PAYLOAD","FILE":"3514673","INCLINATION":"53.0534"},{"NORAD_CAT_ID":"48278","BSTAR":"-0.00001376300000","ECCENTRICITY":"0.00015280","CENTER_NAME":"EARTH","APOAPSIS":"548.309","COUNTRY_CODE":"US","MEAN_ELEMENT_THEORY":"SGP4","RA_OF_ASC_NODE":"249.9506","OBJECT_NAME":"STARLINK-2543","GP_ID":"208202485","TLE_LINE2":"2 48278  53.0527 249.9506 0001528  55.8594 304.2540 15.06387819 68190","RCS_SIZE":"LARGE","MEAN_ANOMALY":"304.2540","TLE_LINE1":"1 48278U 21036C   22196.86932561 -.00000486  00000-0 -13763-4 0  9995","EPHEMERIS_TYPE":"0","MEAN_MOTION":"15.06387819","REF_FRAME":"TEME","CLASSIFICATION_TYPE":"U","REV_AT_EPOCH":"6819","LAUNCH_DATE":"2021-04-29","MEAN_MOTION_DDOT":"0.0000000000000","TIME_SYSTEM":"UTC","MEAN_MOTION_DOT":"-0.00000486","OBJECT_ID":"2021-036C","ARG_OF_PERICENTER":"55.8594","ELEMENT_SET_NO":"999","SITE":"AFETR","PERIOD":"95.593","FILE":"3514839","INCLINATION":"53.0527","DECAY_DATE":null,"PERIAPSIS":"546.193","OBJECT_TYPE":"PAYLOAD","SEMIMAJOR_AXIS":"6925.386","EPOCH":"2022-07-15T20:51:49.732704"},{"MEAN_MOTION_DDOT":"0.0000000000000","TIME_SYSTEM":"UTC","MEAN_MOTION_DOT":"-0.00000076","OBJECT_ID":"2021-036D","REV_AT_EPOCH":"6819","LAUNCH_DATE":"2021-04-29","ARG_OF_PERICENTER":"51.6996","ELEMENT_SET_NO":"999","SITE":"AFETR","PERIOD":"95.592","DECAY_DATE":null,"OBJECT_TYPE":"PAYLOAD","PERIAPSIS":"546.247","FILE":"3514839","INCLINATION":"53.0520","SEMIMAJOR_AXIS":"6925.332","EPOCH":"2022-07-15T20:41:10.487616","NORAD_CAT_ID":"48279","BSTAR":"0.00001379400000","RA_OF_ASC_NODE":"249.9278","GP_ID":"208202736","OBJECT_NAME":"STARLINK-2580","ECCENTRICITY":"0.00013730","CENTER_NAME":"EARTH","APOAPSIS":"548.148","MEAN_ELEMENT_THEORY":"SGP4","COUNTRY_CODE":"US","TLE_LINE2":"2 48279  53.0520 249.9278 0001373  51.6996 308.4117 15.06405240 68193","RCS_SIZE":"MEDIUM","MEAN_MOTION":"15.06405240","REF_FRAME":"TEME","CLASSIFICATION_TYPE":"U","MEAN_ANOMALY":"308.4117","TLE_LINE1":"1 48279U 21036D   22196.86192694 -.00000076  00000-0  13794-4 0  9999","EPHEMERIS_TYPE":"0"},{"MEAN_MOTION_DDOT":"0.0000000000000","TIME_SYSTEM":"UTC","MEAN_MOTION_DOT":"-0.00000044","OBJECT_ID":"2021-036E","REV_AT_EPOCH":"6720","LAUNCH_DATE":"2021-04-29","ARG_OF_PERICENTER":"87.4336","ELEMENT_SET_NO":"999","SITE":"AFETR","PERIOD":"95.593","DECAY_DATE":null,"PERIAPSIS":"546.323","OBJECT_TYPE":"PAYLOAD","FILE":"3514839","INCLINATION":"53.0567","SEMIMAJOR_AXIS":"6925.405","EPOCH":"2022-07-15T18:56:22.490016","NORAD_CAT_ID":"48280","BSTAR":"0.00001596200000","RA_OF_ASC_NODE":"320.2425","OBJECT_NAME":"STARLINK-2565","GP_ID":"208201484","ECCENTRICITY":"0.00013670","CENTER_NAME":"EARTH","APOAPSIS":"548.216","MEAN_ELEMENT_THEORY":"SGP4","COUNTRY_CODE":"US","TLE_LINE2":"2 48280  53.0567 320.2425 0001367  87.4336 272.6809 15.06381727 67205","RCS_SIZE":"LARGE","MEAN_MOTION":"15.06381727","REF_FRAME":"TEME","CLASSIFICATION_TYPE":"U","MEAN_ANOMALY":"272.6809","EPHEMERIS_TYPE":"0","TLE_LINE1":"1 48280U 21036E   22196.78914919 -.00000044  00000-0  15962-4 0  9998"},{"REV_AT_EPOCH":"6748","LAUNCH_DATE":"2021-04-29","MEAN_MOTION_DDOT":"0.0000000000000","TIME_SYSTEM":"UTC","MEAN_MOTION_DOT":"0.00013421","OBJECT_ID":"2021-036F","ARG_OF_PERICENTER":"73.7016","ELEMENT_SET_NO":"999","SITE":"AFETR","PERIOD":"95.592","INCLINATION":"53.0540","FILE":"3514839","DECAY_DATE":null,"PERIAPSIS":"546.220","OBJECT_TYPE":"PAYLOAD","SEMIMAJOR_AXIS":"6925.330","EPOCH":"2022-07-15T19:14:56.036544","NORAD_CAT_ID":"48281","BSTAR":"0.00091801000000","CENTER_NAME":"EARTH","ECCENTRICITY":"0.00014070","APOAPSIS":"548.169","MEAN_ELEMENT_THEORY":"SGP4","COUNTRY_CODE":"US","RA_OF_ASC_NODE":"300.1879","GP_ID":"208201734","OBJECT_NAME":"STARLINK-2520","TLE_LINE2":"2 48281  53.0540 300.1879 0001407  73.7016 286.4127 15.06406105 67489","RCS_SIZE":"LARGE","MEAN_ANOMALY":"286.4127","TLE_LINE1":"1 48281U 21036F   22196.80203746  .00013421  00000-0  91801-3 0  9998","EPHEMERIS_TYPE":"0","MEAN_MOTION":"15.06406105","REF_FRAME":"TEME","CLASSIFICATION_TYPE":"U"},{"SEMIMAJOR_AXIS":"6925.309","EPOCH":"2022-07-15T13:26:35.680416","DECAY_DATE":null,"PERIAPSIS":"546.328","OBJECT_TYPE":"PAYLOAD","FILE":"3514599","INCLINATION":"53.0560","ARG_OF_PERICENTER":"89.5557","ELEMENT_SET_NO":"999","SITE":"AFETR","PERIOD":"95.591","MEAN_MOTION_DDOT":"0.0000000000000","TIME_SYSTEM":"UTC","MEAN_MOTION_DOT":"-0.00001732","OBJECT_ID":"2021-036G","REV_AT_EPOCH":"6796","LAUNCH_DATE":"2021-04-29","MEAN_MOTION":"15.06413049","REF_FRAME":"TEME","CLASSIFICATION_TYPE":"U","MEAN_ANOMALY":"270.5572","TLE_LINE1":"1 48282U 21036G   22196.56013519 -.00001732  00000-0 -97402-4 0  9997","EPHEMERIS_TYPE":"0","TLE_LINE2":"2 48282  53.0560 306.2804 0001221  89.5557 270.5572 15.06413049 67962","RCS_SIZE":"LARGE","RA_OF_ASC_NODE":"306.2804","OBJECT_NAME":"STARLINK-2558","GP_ID":"208175699","CENTER_NAME":"EARTH","ECCENTRICITY":"0.00012210","APOAPSIS":"548.019","MEAN_ELEMENT_THEORY":"SGP4","COUNTRY_CODE":"US","NORAD_CAT_ID":"48282","BSTAR":"-0.00009740200000"}];
